start=new Date('2022-04-22T00:00:00.000Z').valueOf();
sats=[{"MEAN_ELEMENT_THEORY":"SGP4","TLE_LINE1":"1 45410U 20019BC  22111.52915337  .00167739  00000-0  62236-3 0  9993","COUNTRY_CODE":"US","TLE_LINE2":"2 45410  53.0449 240.4164 0003568 341.1808  18.9083 15.87103718118098","OBJECT_NAME":"STARLINK-1285","DECAY_DATE":null,"NORAD_CAT_ID":"45410","CLASSIFICATION_TYPE":"U","ARG_OF_PERICENTER":"341.1808","PERIAPSIS":"308.023","APOAPSIS":"312.796","MEAN_MOTION":"15.87103718","FILE":"3410449","ELEMENT_SET_NO":"999","OBJECT_TYPE":"PAYLOAD","REF_FRAME":"TEME","MEAN_ANOMALY":"18.9083","BSTAR":"0.00062236000000","GP_ID":"201748836","MEAN_MOTION_DDOT":"0.0000000000000","CENTER_NAME":"EARTH","OBJECT_ID":"2020-019BC","SEMIMAJOR_AXIS":"6688.545","INCLINATION":"53.0449","ECCENTRICITY":"0.00035680","SITE":"AFETR","PERIOD":"90.731","EPHEMERIS_TYPE":"0","TIME_SYSTEM":"UTC","REV_AT_EPOCH":"11809","EPOCH":"2022-04-21T12:41:58.851168","RCS_SIZE":"LARGE","LAUNCH_DATE":"2020-03-18","MEAN_MOTION_DOT":"0.00167739","RA_OF_ASC_NODE":"240.4164"},{"CENTER_NAME":"EARTH","MEAN_MOTION_DDOT":"0.0000000000000","OBJECT_ID":"2020-019BD","SEMIMAJOR_AXIS":"6925.355","INCLINATION":"53.0558","ECCENTRICITY":"0.00016440","SITE":"AFETR","PERIOD":"95.592","TIME_SYSTEM":"UTC","EPHEMERIS_TYPE":"0","REV_AT_EPOCH":"11612","EPOCH":"2022-04-21T10:45:57.439872","RCS_SIZE":"LARGE","LAUNCH_DATE":"2020-03-18","MEAN_MOTION_DOT":"-0.00001033","RA_OF_ASC_NODE":"23.3379","MEAN_ELEMENT_THEORY":"SGP4","TLE_LINE2":"2 45411  53.0558  23.3379 0001644  73.5226 286.5944 15.06397890116127","COUNTRY_CODE":"US","TLE_LINE1":"1 45411U 20019BD  22111.44858148 -.00001033  00000-0 -50447-4 0  9999","OBJECT_NAME":"STARLINK-1293","CLASSIFICATION_TYPE":"U","DECAY_DATE":null,"NORAD_CAT_ID":"45411","PERIAPSIS":"546.081","ARG_OF_PERICENTER":"73.5226","APOAPSIS":"548.359","MEAN_MOTION":"15.06397890","FILE":"3410449","ELEMENT_SET_NO":"999","OBJECT_TYPE":"PAYLOAD","MEAN_ANOMALY":"286.5944","REF_FRAME":"TEME","BSTAR":"-0.00005044700000","GP_ID":"201747614"},{"RCS_SIZE":"LARGE","EPOCH":"2022-04-21T21:06:56.825568","REV_AT_EPOCH":"11616","EPHEMERIS_TYPE":"0","TIME_SYSTEM":"UTC","RA_OF_ASC_NODE":"21.4171","MEAN_MOTION_DOT":"0.00000628","LAUNCH_DATE":"2020-03-18","SEMIMAJOR_AXIS":"6925.324","OBJECT_ID":"2020-019BE","CENTER_NAME":"EARTH","MEAN_MOTION_DDOT":"0.0000000000000","PERIOD":"95.592","SITE":"AFETR","ECCENTRICITY":"0.00015970","INCLINATION":"53.0555","BSTAR":"0.00006105700000","REF_FRAME":"TEME","OBJECT_TYPE":"PAYLOAD","MEAN_ANOMALY":"291.7738","ELEMENT_SET_NO":"999","MEAN_MOTION":"15.06408017","FILE":"3410450","GP_ID":"201773230","OBJECT_NAME":"STARLINK-1296","COUNTRY_CODE":"US","TLE_LINE2":"2 45412  53.0555  21.4171 0001597  68.3421 291.7738 15.06408017116167","TLE_LINE1":"1 45412U 20019BE  22111.87982437  .00000628  00000-0  61057-4 0  9992","MEAN_ELEMENT_THEORY":"SGP4","APOAPSIS":"548.295","PERIAPSIS":"546.083","ARG_OF_PERICENTER":"68.3421","CLASSIFICATION_TYPE":"U","DECAY_DATE":null,"NORAD_CAT_ID":"45412"},{"ECCENTRICITY":"0.00014040","INCLINATION":"53.0557","PERIOD":"95.592","SITE":"AFETR","SEMIMAJOR_AXIS":"6925.345","OBJECT_ID":"2020-019BF","MEAN_MOTION_DDOT":"0.0000000000000","CENTER_NAME":"EARTH","MEAN_MOTION_DOT":"0.00000518","LAUNCH_DATE":"2020-03-18","RA_OF_ASC_NODE":"21.5753","REV_AT_EPOCH":"11625","TIME_SYSTEM":"UTC","EPHEMERIS_TYPE":"0","RCS_SIZE":"LARGE","EPOCH":"2022-04-21T20:13:52.951872","DECAY_DATE":null,"NORAD_CAT_ID":"45413","CLASSIFICATION_TYPE":"U","APOAPSIS":"548.182","ARG_OF_PERICENTER":"76.3838","PERIAPSIS":"546.238","MEAN_ELEMENT_THEORY":"SGP4","OBJECT_NAME":"STARLINK-1298","TLE_LINE1":"1 45413U 20019BF  22111.84297398  .00000518  00000-0  53661-4 0  9995","COUNTRY_CODE":"US","TLE_LINE2":"2 45413  53.0557  21.5753 0001404  76.3838 283.7307 15.06401179116250","GP_ID":"201773976","ELEMENT_SET_NO":"999","FILE":"3410450","MEAN_MOTION":"15.06401179","BSTAR":"0.00005366100000","REF_FRAME":"TEME","OBJECT_TYPE":"PAYLOAD","MEAN_ANOMALY":"283.7307"},{"SEMIMAJOR_AXIS":"6925.335","OBJECT_ID":"2020-019BG","MEAN_MOTION_DDOT":"0.0000000000000","CENTER_NAME":"EARTH","ECCENTRICITY":"0.00014670","INCLINATION":"53.0546","PERIOD":"95.592","SITE":"AFETR","REV_AT_EPOCH":"11604","TIME_SYSTEM":"UTC","EPHEMERIS_TYPE":"0","RCS_SIZE":"LARGE","EPOCH":"2022-04-21T03:57:15.604416","MEAN_MOTION_DOT":"0.00000142","LAUNCH_DATE":"2020-03-18","RA_OF_ASC_NODE":"24.6162","MEAN_ELEMENT_THEORY":"SGP4","OBJECT_NAME":"STARLINK-1309","TLE_LINE1":"1 45414U 20019BG  22111.16476394  .00000142  00000-0  28457-4 0  9994","COUNTRY_CODE":"US","TLE_LINE2":"2 45414  53.0546  24.6162 0001467  82.3166 277.7989 15.06404563116043","DECAY_DATE":null,"NORAD_CAT_ID":"45414","CLASSIFICATION_TYPE":"U","APOAPSIS":"548.216","ARG_OF_PERICENTER":"82.3166","PERIAPSIS":"546.184","ELEMENT_SET_NO":"999","FILE":"3410449","MEAN_MOTION":"15.06404563","BSTAR":"0.00002845700000","OBJECT_TYPE":"PAYLOAD","MEAN_ANOMALY":"277.7989","REF_FRAME":"TEME","GP_ID":"201748336"},{"INCLINATION":"53.0572","ECCENTRICITY":"0.00013670","SITE":"AFETR","PERIOD":"95.592","MEAN_MOTION_DDOT":"0.0000000000000","CENTER_NAME":"EARTH","OBJECT_ID":"2020-019BH","SEMIMAJOR_AXIS":"6925.343","LAUNCH_DATE":"2020-03-18","MEAN_MOTION_DOT":"0.00001444","RA_OF_ASC_NODE":"21.5251","EPHEMERIS_TYPE":"0","TIME_SYSTEM":"UTC","REV_AT_EPOCH":"11618","EPOCH":"2022-04-21T20:29:47.937984","RCS_SIZE":"LARGE","DECAY_DATE":null,"CLASSIFICATION_TYPE":"U","NORAD_CAT_ID":"45415","ARG_OF_PERICENTER":"88.2399","PERIAPSIS":"546.261","APOAPSIS":"548.154","MEAN_ELEMENT_THEORY":"SGP4","TLE_LINE1":"1 45415U 20019BH  22111.85402706  .00001444  00000-0  11584-3 0  9995","COUNTRY_CODE":"US","TLE_LINE2":"2 45415  53.0572  21.5251 0001367  88.2399 271.8746 15.06401889116189","OBJECT_NAME":"STARLINK-1316","GP_ID":"201772479","MEAN_MOTION":"15.06401889","FILE":"3410450","ELEMENT_SET_NO":"999","OBJECT_TYPE":"PAYLOAD","MEAN_ANOMALY":"271.8746","REF_FRAME":"TEME","BSTAR":"0.00011584000000"},{"MEAN_MOTION_DOT":"0.00001139","LAUNCH_DATE":"2020-03-18","RA_OF_ASC_NODE":"21.6957","REV_AT_EPOCH":"11616","EPHEMERIS_TYPE":"0","TIME_SYSTEM":"UTC","RCS_SIZE":"LARGE","EPOCH":"2022-04-21T19:42:01.925568","ECCENTRICITY":"0.00013580","INCLINATION":"53.0543","PERIOD":"95.592","SITE":"AFETR","OBJECT_ID":"2020-019BJ","SEMIMAJOR_AXIS":"6925.340","CENTER_NAME":"EARTH","MEAN_MOTION_DDOT":"0.0000000000000","GP_ID":"201773731","ELEMENT_SET_NO":"999","FILE":"3410450","MEAN_MOTION":"15.06402729","BSTAR":"0.00009533300000","REF_FRAME":"TEME","OBJECT_TYPE":"PAYLOAD","MEAN_ANOMALY":"283.3869","NORAD_CAT_ID":"45416","DECAY_DATE":null,"CLASSIFICATION_TYPE":"U","APOAPSIS":"548.146","PERIAPSIS":"546.265","ARG_OF_PERICENTER":"76.7272","MEAN_ELEMENT_THEORY":"SGP4","OBJECT_NAME":"STARLINK-1318","COUNTRY_CODE":"US","TLE_LINE2":"2 45416  53.0543  21.6957 0001358  76.7272 283.3869 15.06402729116160","TLE_LINE1":"1 45416U 20019BJ  22111.82085562  .00001139  00000-0  95333-4 0  9996"},{"INCLINATION":"53.0544","ECCENTRICITY":"0.00015030","SITE":"AFETR","PERIOD":"95.592","MEAN_MOTION_DDOT":"0.0000000000000","CENTER_NAME":"EARTH","OBJECT_ID":"2020-019BK","SEMIMAJOR_AXIS":"6925.350","LAUNCH_DATE":"2020-03-18","MEAN_MOTION_DOT":"0.00000280","RA_OF_ASC_NODE":"52.8499","EPHEMERIS_TYPE":"0","TIME_SYSTEM":"UTC","REV_AT_EPOCH":"11597","EPOCH":"2022-04-21T13:26:30.540480","RCS_SIZE":"LARGE","DECAY_DATE":null,"CLASSIFICATION_TYPE":"U","NORAD_CAT_ID":"45417","ARG_OF_PERICENTER":"76.5843","PERIAPSIS":"546.174","APOAPSIS":"548.256","MEAN_ELEMENT_THEORY":"SGP4","TLE_LINE1":"1 45417U 20019BK  22111.56007570  .00000280  00000-0  37724-4 0  9997","TLE_LINE2":"2 45417  53.0544  52.8499 0001503  76.5843 283.5313 15.06399422115972","COUNTRY_CODE":"US","OBJECT_NAME":"STARLINK-1286","GP_ID":"201748109","FILE":"3410449","MEAN_MOTION":"15.06399422","ELEMENT_SET_NO":"999","OBJECT_TYPE":"PAYLOAD","REF_FRAME":"TEME","MEAN_ANOMALY":"283.5313","BSTAR":"0.00003772400000"},{"PERIAPSIS":"552.553","ARG_OF_PERICENTER":"70.5344","APOAPSIS":"555.426","NORAD_CAT_ID":"45418","DECAY_DATE":null,"CLASSIFICATION_TYPE":"U","TLE_LINE2":"2 45418  53.0004  74.1133 0002072  70.5344 289.5867 15.04191919115382","COUNTRY_CODE":"US","TLE_LINE1":"1 45418U 20019BL  22111.59825027  .00017091  00000-0  12341-2 0  9990","OBJECT_NAME":"STARLINK-1299","MEAN_ELEMENT_THEORY":"SGP4","GP_ID":"201772730","MEAN_ANOMALY":"289.5867","OBJECT_TYPE":"PAYLOAD","REF_FRAME":"TEME","BSTAR":"0.00123410000000","FILE":"3410450","MEAN_MOTION":"15.04191919","ELEMENT_SET_NO":"999","SITE":"AFETR","PERIOD":"95.732","INCLINATION":"53.0004","ECCENTRICITY":"0.00020720","CENTER_NAME":"EARTH","MEAN_MOTION_DDOT":"0.0000000000000","OBJECT_ID":"2020-019BL","SEMIMAJOR_AXIS":"6932.124","RA_OF_ASC_NODE":"74.1133","LAUNCH_DATE":"2020-03-18","MEAN_MOTION_DOT":"0.00017091","EPOCH":"2022-04-21T14:21:28.823328","RCS_SIZE":"LARGE","TIME_SYSTEM":"UTC","EPHEMERIS_TYPE":"0","REV_AT_EPOCH":"11538"},{"OBJECT_ID":"2020-019BM","SEMIMAJOR_AXIS":"6925.337","CENTER_NAME":"EARTH","MEAN_MOTION_DDOT":"0.0000000000000","ECCENTRICITY":"0.00016990","INCLINATION":"53.0568","PERIOD":"95.592","SITE":"AFETR","REV_AT_EPOCH":"11572","TIME_SYSTEM":"UTC","EPHEMERIS_TYPE":"0","RCS_SIZE":"LARGE","EPOCH":"2022-04-21T13:21:12.177216","MEAN_MOTION_DOT":"0.00002295","LAUNCH_DATE":"2020-03-18","RA_OF_ASC_NODE":"52.8718","MEAN_ELEMENT_THEORY":"SGP4","OBJECT_NAME":"STARLINK-1308","TLE_LINE2":"2 45419  53.0568  52.8718 0001699  65.4615 294.6551 15.06403624115724","COUNTRY_CODE":"US","TLE_LINE1":"1 45419U 20019BM  22111.55639094  .00002295  00000-0  17290-3 0  9993","CLASSIFICATION_TYPE":"U","DECAY_DATE":null,"NORAD_CAT_ID":"45419","APOAPSIS":"548.379","PERIAPSIS":"546.026","ARG_OF_PERICENTER":"65.4615","ELEMENT_SET_NO":"999","MEAN_MOTION":"15.06403624","FILE":"3410449","BSTAR":"0.00017290000000","REF_FRAME":"TEME","OBJECT_TYPE":"PAYLOAD","MEAN_ANOMALY":"294.6551","GP_ID":"201747615"}];
